HIMAWARI-8              
1 40267U 14060A   23193.53253852 -.00000276  00000+0  00000+0 0  9995
2 40267   0.0329 285.5541 0000888 211.0904 125.8435  1.00270357 32127
